[{"OBJECT_NAME":"ONEWEB-0567","OBJECT_ID":"2023-004H","EPOCH":"2025-12-17T02:37:58.939680","MEAN_MOTION":13.18686278,"ECCENTRICITY":0.00014736,"INCLINATION":87.9169,"RA_OF_ASC_NODE":11.6459,"ARG_OF_PERICENTER":82.8004,"MEAN_ANOMALY":277.3296,"EPHEMERIS_TYPE":0,"CLASSIFICATION_TYPE":"U","NORAD_CAT_ID":55147,"ELEMENT_SET_NO":999,"REV_AT_EPOCH":14570,"BSTAR":6.4035951e-5,"MEAN_MOTION_DOT":3.8e-7,"MEAN_MOTION_DDOT":0},{"OBJECT_NAME":"ONEWEB-0569","OBJECT_ID":"2023-004J","EPOCH":"2025-12-17T05:57:40.156416","MEAN_MOTION":13.13471204,"ECCENTRICITY":0.00017208,"INCLINATION":87.8987,"RA_OF_ASC_NODE":356.3687,"ARG_OF_PERICENTER":58.3197,"MEAN_ANOMALY":301.81,"EPHEMERIS_TYPE":0,"CLASSIFICATION_TYPE":"U","NORAD_CAT_ID":55148,"ELEMENT_SET_NO":999,"REV_AT_EPOCH":14629,"BSTAR":0.00065256355,"MEAN_MOTION_DOT":2.51e-6,"MEAN_MOTION_DDOT":0},{"OBJECT_NAME":"ONEWEB-0570","OBJECT_ID":"2023-004K","EPOCH":"2025-12-17T07:51:30.104928","MEAN_MOTION":13.18684804,"ECCENTRICITY":0.00014499,"INCLINATION":87.9168,"RA_OF_ASC_NODE":11.6022,"ARG_OF_PERICENTER":107.1877,"MEAN_ANOMALY":252.9414,"EPHEMERIS_TYPE":0,"CLASSIFICATION_TYPE":"U","NORAD_CAT_ID":55149,"ELEMENT_SET_NO":999,"REV_AT_EPOCH":14572,"BSTAR":0.00022401941,"MEAN_MOTION_DOT":1.01e-6,"MEAN_MOTION_DDOT":0},{"OBJECT_NAME":"ONEWEB-0571","OBJECT_ID":"2023-004L","EPOCH":"2025-12-17T07:42:00.204480","MEAN_MOTION":13.18684403,"ECCENTRICITY":0.00010167,"INCLINATION":87.9164,"RA_OF_ASC_NODE":11.6028,"ARG_OF_PERICENTER":50.5408,"MEAN_ANOMALY":309.5814,"EPHEMERIS_TYPE":0,"CLASSIFICATION_TYPE":"U","NORAD_CAT_ID":55150,"ELEMENT_SET_NO":999,"REV_AT_EPOCH":14573,"BSTAR":-1.942816e-5,"MEAN_MOTION_DOT":5.0e-8,"MEAN_MOTION_DDOT":0},{"OBJECT_NAME":"ONEWEB-0572","OBJECT_ID":"2023-004M","EPOCH":"2025-12-17T04:43:06.123360","MEAN_MOTION":13.17647523,"ECCENTRICITY":0.00015583,"INCLINATION":87.9114,"RA_OF_ASC_NODE":42.0553,"ARG_OF_PERICENTER":98.6691,"MEAN_ANOMALY":261.4617,"EPHEMERIS_TYPE":0,"CLASSIFICATION_TYPE":"U","NORAD_CAT_ID":55151,"ELEMENT_SET_NO":999,"REV_AT_EPOCH":14351,"BSTAR":0.00021343337,"MEAN_MOTION_DOT":9.6e-7,"MEAN_MOTION_DDOT":0},{"OBJECT_NAME":"ONEWEB-0573","OBJECT_ID":"2023-004N","EPOCH":"2025-12-17T07:32:29.534208","MEAN_MOTION":13.18684603,"ECCENTRICITY":9.445e-5,"INCLINATION":87.9155,"RA_OF_ASC_NODE":11.6092,"ARG_OF_PERICENTER":94.0886,"MEAN_ANOMALY":266.0354,"EPHEMERIS_TYPE":0,"CLASSIFICATION_TYPE":"U","NORAD_CAT_ID":55152,"ELEMENT_SET_NO":999,"REV_AT_EPOCH":14572,"BSTAR":0.00014744854,"MEAN_MOTION_DOT":7.1e-7,"MEAN_MOTION_DDOT":0},{"OBJECT_NAME":"ONEWEB-0588","OBJECT_ID":"2023-004P","EPOCH":"2025-12-17T07:23:00.939264","MEAN_MOTION":13.18686675,"ECCENTRICITY":0.00013851,"INCLINATION":87.9169,"RA_OF_ASC_NODE":11.606,"ARG_OF_PERICENTER":101.8129,"MEAN_ANOMALY":258.3158,"EPHEMERIS_TYPE":0,"CLASSIFICATION_TYPE":"U","NORAD_CAT_ID":55153,"ELEMENT_SET_NO":999,"REV_AT_EPOCH":14572,"BSTAR":0.00010829103,"MEAN_MOTION_DOT":5.6e-7,"MEAN_MOTION_DDOT":0},{"OBJECT_NAME":"ONEWEB-0598","OBJECT_ID":"2023-004Q","EPOCH":"2025-12-17T04:37:06.446208","MEAN_MOTION":13.11418139,"ECCENTRICITY":0.00014209,"INCLINATION":87.8851,"RA_OF_ASC_NODE":57.3163,"ARG_OF_PERICENTER":84.2115,"MEAN_ANOMALY":275.9175,"EPHEMERIS_TYPE":0,"CLASSIFICATION_TYPE":"U","NORAD_CAT_ID":55154,"ELEMENT_SET_NO":999,"REV_AT_EPOCH":14204,"BSTAR":0.0010895818,"MEAN_MOTION_DOT":3.99e-6,"MEAN_MOTION_DDOT":0},{"OBJECT_NAME":"ONEWEB-0599","OBJECT_ID":"2023-004R","EPOCH":"2025-12-17T03:47:12.620544","MEAN_MOTION":13.17648184,"ECCENTRICITY":0.00017851,"INCLINATION":87.9108,"RA_OF_ASC_NODE":42.0638,"ARG_OF_PERICENTER":92.4269,"MEAN_ANOMALY":267.7067,"EPHEMERIS_TYPE":0,"CLASSIFICATION_TYPE":"U","NORAD_CAT_ID":55155,"ELEMENT_SET_NO":999,"REV_AT_EPOCH":14351,"BSTAR":0.00018002257,"MEAN_MOTION_DOT":8.3e-7,"MEAN_MOTION_DDOT":0},{"OBJECT_NAME":"ONEWEB-0614","OBJECT_ID":"2023-004S","EPOCH":"2025-12-17T06:19:41.024928","MEAN_MOTION":13.11414142,"ECCENTRICITY":0.00017784,"INCLINATION":87.885,"RA_OF_ASC_NODE":57.3113,"ARG_OF_PERICENTER":114.0557,"MEAN_ANOMALY":246.0757,"EPHEMERIS_TYPE":0,"CLASSIFICATION_TYPE":"U","NORAD_CAT_ID":55156,"ELEMENT_SET_NO":999,"REV_AT_EPOCH":14199,"BSTAR":0.0013956131,"MEAN_MOTION_DOT":5.07e-6,"MEAN_MOTION_DDOT":0},{"OBJECT_NAME":"ONEWEB-0616","OBJECT_ID":"2023-004T","EPOCH":"2025-12-17T04:47:57.175584","MEAN_MOTION":13.17647661,"ECCENTRICITY":0.00025899,"INCLINATION":87.9117,"RA_OF_ASC_NODE":42.0478,"ARG_OF_PERICENTER":84.1038,"MEAN_ANOMALY":276.0389,"EPHEMERIS_TYPE":0,"CLASSIFICATION_TYPE":"U","NORAD_CAT_ID":55157,"ELEMENT_SET_NO":999,"REV_AT_EPOCH":14373,"BSTAR":8.2883102e-5,"MEAN_MOTION_DOT":4.5e-7,"MEAN_MOTION_DDOT":0},{"OBJECT_NAME":"ONEWEB-0617","OBJECT_ID":"2023-004U","EPOCH":"2025-12-17T06:02:36.487680","MEAN_MOTION":13.11416937,"ECCENTRICITY":0.00015098,"INCLINATION":87.8852,"RA_OF_ASC_NODE":57.2928,"ARG_OF_PERICENTER":112.3998,"MEAN_ANOMALY":247.7291,"EPHEMERIS_TYPE":0,"CLASSIFICATION_TYPE":"U","NORAD_CAT_ID":55158,"ELEMENT_SET_NO":999,"REV_AT_EPOCH":14201,"BSTAR":0.0016094499,"MEAN_MOTION_DOT":5.83e-6,"MEAN_MOTION_DDOT":0},{"OBJECT_NAME":"ONEWEB-0618","OBJECT_ID":"2023-004V","EPOCH":"2025-12-17T04:47:47.525568","MEAN_MOTION":15.10795615,"ECCENTRICITY":0.00104624,"INCLINATION":86.9096,"RA_OF_ASC_NODE":251.4263,"ARG_OF_PERICENTER":244.9622,"MEAN_ANOMALY":115.0531,"EPHEMERIS_TYPE":0,"CLASSIFICATION_TYPE":"U","NORAD_CAT_ID":55159,"ELEMENT_SET_NO":999,"REV_AT_EPOCH":15476,"BSTAR":0.00045206689,"MEAN_MOTION_DOT":7.544e-5,"MEAN_MOTION_DDOT":0},{"OBJECT_NAME":"ONEWEB-0619","OBJECT_ID":"2023-004W","EPOCH":"2025-12-17T03:44:46.195008","MEAN_MOTION":13.176507,"ECCENTRICITY":0.00022089,"INCLINATION":87.9116,"RA_OF_ASC_NODE":42.0304,"ARG_OF_PERICENTER":106.3443,"MEAN_ANOMALY":253.7932,"EPHEMERIS_TYPE":0,"CLASSIFICATION_TYPE":"U","NORAD_CAT_ID":55160,"ELEMENT_SET_NO":999,"REV_AT_EPOCH":14362,"BSTAR":0.00022076393,"MEAN_MOTION_DOT":9.9e-7,"MEAN_MOTION_DDOT":0},{"OBJECT_NAME":"ONEWEB-0620","OBJECT_ID":"2023-004X","EPOCH":"2025-12-17T05:55:16.518144","MEAN_MOTION":13.11421402,"ECCENTRICITY":0.0001396,"INCLINATION":87.8853,"RA_OF_ASC_NODE":57.3135,"ARG_OF_PERICENTER":101.706,"MEAN_ANOMALY":258.4225,"EPHEMERIS_TYPE":0,"CLASSIFICATION_TYPE":"U","NORAD_CAT_ID":55161,"ELEMENT_SET_NO":999,"REV_AT_EPOCH":14198,"BSTAR":0.0010417361,"MEAN_MOTION_DOT":3.82e-6,"MEAN_MOTION_DDOT":0},{"OBJECT_NAME":"ONEWEB-0621","OBJECT_ID":"2023-004Y","EPOCH":"2025-12-17T04:44:27.455136","MEAN_MOTION":13.11413907,"ECCENTRICITY":0.00018569,"INCLINATION":87.8863,"RA_OF_ASC_NODE":57.2946,"ARG_OF_PERICENTER":109.4989,"MEAN_ANOMALY":250.634,"EPHEMERIS_TYPE":0,"CLASSIFICATION_TYPE":"U","NORAD_CAT_ID":55162,"ELEMENT_SET_NO":999,"REV_AT_EPOCH":14195,"BSTAR":0.00023296029,"MEAN_MOTION_DOT":9.5e-7,"MEAN_MOTION_DDOT":0},{"OBJECT_NAME":"ONEWEB-0622","OBJECT_ID":"2023-004Z","EPOCH":"2025-12-17T04:51:47.054880","MEAN_MOTION":13.11415832,"ECCENTRICITY":0.00014865,"INCLINATION":87.8855,"RA_OF_ASC_NODE":57.3021,"ARG_OF_PERICENTER":130.2384,"MEAN_ANOMALY":229.8874,"EPHEMERIS_TYPE":0,"CLASSIFICATION_TYPE":"U","NORAD_CAT_ID":55163,"ELEMENT_SET_NO":999,"REV_AT_EPOCH":14194,"BSTAR":-0.00036212229,"MEAN_MOTION_DOT":-1.16e-6,"MEAN_MOTION_DDOT":0},{"OBJECT_NAME":"ONEWEB-0623","OBJECT_ID":"2023-004AA","EPOCH":"2025-12-17T03:37:28.854624","MEAN_MOTION":13.1764783,"ECCENTRICITY":0.0001995,"INCLINATION":87.9108,"RA_OF_ASC_NODE":42.0806,"ARG_OF_PERICENTER":122.776,"MEAN_ANOMALY":237.3564,"EPHEMERIS_TYPE":0,"CLASSIFICATION_TYPE":"U","NORAD_CAT_ID":55164,"ELEMENT_SET_NO":999,"REV_AT_EPOCH":14361,"BSTAR":0.00022709373,"MEAN_MOTION_DOT":1.01e-6,"MEAN_MOTION_DDOT":0},{"OBJECT_NAME":"ONEWEB-0624","OBJECT_ID":"2023-004AB","EPOCH":"2025-12-17T08:38:03.095520","MEAN_MOTION":13.12921519,"ECCENTRICITY":0.00017861,"INCLINATION":87.8929,"RA_OF_ASC_NODE":26.7397,"ARG_OF_PERICENTER":107.4359,"MEAN_ANOMALY":252.6965,"EPHEMERIS_TYPE":0,"CLASSIFICATION_TYPE":"U","NORAD_CAT_ID":55165,"ELEMENT_SET_NO":999,"REV_AT_EPOCH":14421,"BSTAR":-0.0010128709,"MEAN_MOTION_DOT":-3.54e-6,"MEAN_MOTION_DDOT":0},{"OBJECT_NAME":"ONEWEB-0625","OBJECT_ID":"2023-004AC","EPOCH":"2025-12-17T05:12:14.868864","MEAN_MOTION":13.17648809,"ECCENTRICITY":0.00019415,"INCLINATION":87.9107,"RA_OF_ASC_NODE":42.062,"ARG_OF_PERICENTER":96.4695,"MEAN_ANOMALY":263.6657,"EPHEMERIS_TYPE":0,"CLASSIFICATION_TYPE":"U","NORAD_CAT_ID":55166,"ELEMENT_SET_NO":999,"REV_AT_EPOCH":14361,"BSTAR":8.0590669e-5,"MEAN_MOTION_DOT":4.4e-7,"MEAN_MOTION_DDOT":0},{"OBJECT_NAME":"ONEWEB-0626","OBJECT_ID":"2023-004AD","EPOCH":"2025-12-17T04:57:40.165632","MEAN_MOTION":13.17650538,"ECCENTRICITY":0.00014033,"INCLINATION":87.9108,"RA_OF_ASC_NODE":42.0642,"ARG_OF_PERICENTER":87.5176,"MEAN_ANOMALY":272.6116,"EPHEMERIS_TYPE":0,"CLASSIFICATION_TYPE":"U","NORAD_CAT_ID":55167,"ELEMENT_SET_NO":999,"REV_AT_EPOCH":14361,"BSTAR":0.00017441931,"MEAN_MOTION_DOT":8.1e-7,"MEAN_MOTION_DDOT":0},{"OBJECT_NAME":"ONEWEB-0627","OBJECT_ID":"2023-004AE","EPOCH":"2025-12-17T04:40:40.133280","MEAN_MOTION":13.17648044,"ECCENTRICITY":0.00017677,"INCLINATION":87.9105,"RA_OF_ASC_NODE":42.0666,"ARG_OF_PERICENTER":117.7979,"MEAN_ANOMALY":242.3332,"EPHEMERIS_TYPE":0,"CLASSIFICATION_TYPE":"U","NORAD_CAT_ID":55168,"ELEMENT_SET_NO":999,"REV_AT_EPOCH":14361,"BSTAR":9.3286197e-5,"MEAN_MOTION_DOT":4.9e-7,"MEAN_MOTION_DDOT":0},{"OBJECT_NAME":"ONEWEB-0628","OBJECT_ID":"2023-004AF","EPOCH":"2025-12-17T08:24:22.097664","MEAN_MOTION":13.12312928,"ECCENTRICITY":0.00020933,"INCLINATION":87.8937,"RA_OF_ASC_NODE":26.7699,"ARG_OF_PERICENTER":116.4665,"MEAN_ANOMALY":243.6679,"EPHEMERIS_TYPE":0,"CLASSIFICATION_TYPE":"U","NORAD_CAT_ID":55169,"ELEMENT_SET_NO":999,"REV_AT_EPOCH":14418,"BSTAR":-0.00067449225,"MEAN_MOTION_DOT":-2.29e-6,"MEAN_MOTION_DDOT":0}]
